NORAD_CAT_ID,OBJECT_NAME,OBJECT_TYPE,EPOCH,MEAN_MOTION,ECCENTRICITY,INCLINATION,RA_OF_ASC_NODE,ARG_OF_PERICENTER,MEAN_ANOMALY,BSTAR,MEAN_MOTION_DOT,MEAN_MOTION_DDOT,TLE_LINE0,TLE_LINE1,TLE_LINE2,SEMIMAJOR_AXIS,PERIOD,APOGEE,PERIGEE,DECAYED
53828.0,STARLINK-4760,PAYLOAD,2023-08-31 02:20:40,15.08847088,0.0001272,53.2165,121.2124,85.3194,274.7944,7.9295e-05,9.75e-06,0.0,0 STARLINK-4760,1 53828U 22114L   23243.09769420  .00000975  00000-0  79295-4 0  9994,2 53828  53.2165 121.2124 0001272  85.3194 274.7944 15.08847088 53706,6917.859,95.437,540.604,538.844,0.0
53828.0,STARLINK-4760,PAYLOAD,2023-09-01 00:36:05,15.08836844,0.0001398,53.2166,117.0489,88.8026,271.3127,6.5656e-05,7.57e-06,0.0,0 STARLINK-4760,1 53828U 22114L   23244.02506393  .00000757  00000-0  65656-4 0  9990,2 53828  53.2166 117.0489 0001398  88.8026 271.3127 15.08836844 53305,6917.89,95.438,540.722,538.788,0.0
53828.0,STARLINK-4760,PAYLOAD,2023-09-01 08:33:02,15.08812668,0.0001654,53.2149,115.5648,82.2781,277.8399,0.00048233,7.391e-05,0.0,0 STARLINK-4760,1 53828U 22114L   23244.35627356  .00007391  00000-0  48233-3 0  9991,2 53828  53.2149 115.5648 0001654  82.2781 277.8399 15.08812668 53352,6917.964,95.439,540.973,538.685,0.0
53828.0,STARLINK-4760,PAYLOAD,2023-09-01 16:29:57,15.08830306,0.0001814,53.2175,114.0763,90.995,269.125,0.00022938,3.363e-05,0.0,0 STARLINK-4760,1 53828U 22114L   23244.68746763  .00003363  00000-0  22938-3 0  9990,2 53828  53.2175 114.0763 0001814  90.9950 269.1250 15.08830306 53400,6917.91,95.438,541.03,538.52,0.0
53828.0,STARLINK-4760,PAYLOAD,2023-09-02 00:26:52,15.08841434,0.000174,53.2165,112.5885,82.8724,277.2466,0.00012666,1.728e-05,0.0,0 STARLINK-4760,1 53828U 22114L   23245.01866032  .00001728  00000-0  12666-3 0  9990,2 53828  53.2165 112.5885 0001740  82.8724 277.2466 15.08841434 53452,6917.876,95.437,540.945,538.537,0.0
53828.0,STARLINK-4760,PAYLOAD,2023-09-02 21:06:53,15.08842509,0.0001672,53.2134,108.7229,87.9796,272.1387,8.5133e-05,1.067e-05,0.0,0 STARLINK-4760,1 53828U 22114L   23245.87978140  .00001067  00000-0  85133-4 0  9994,2 53828  53.2134 108.7229 0001672  87.9796 272.1387 15.08842509 54121,6917.873,95.437,540.894,538.581,0.0
53828.0,STARLINK-4760,PAYLOAD,2023-09-03 08:14:35,15.08841507,0.000164,53.214,106.6404,89.788,270.33,6.7588e-05,7.88e-06,0.0,0 STARLINK-4760,1 53828U 22114L   23246.34346295  .00000788  00000-0  67588-4 0  9990,2 53828  53.2140 106.6404 0001640  89.7880 270.3300 15.08841507 53658,6917.876,95.437,540.875,538.606,0.0
53828.0,STARLINK-4760,PAYLOAD,2023-09-04 08:05:22,15.08836689,0.0001267,53.2156,102.181,89.1772,270.9366,7.5232e-05,9.1e-06,0.0,0 STARLINK-4760,1 53828U 22114L   23247.33706507  .00000910  00000-0  75232-4 0  9998,2 53828  53.2156 102.1810 0001267  89.1772 270.9366 15.08836689 53806,6917.891,95.438,540.632,538.879,0.0
53828.0,STARLINK-4760,PAYLOAD,2023-09-04 23:59:14,15.08835647,0.0001368,53.216,99.2074,87.7596,272.3552,1.0537e-05,-1.2e-06,0.0,0 STARLINK-4760,1 53828U 22114L   23247.99946905 -.00000120  00000-0  10537-4 0  9999,2 53828  53.2160  99.2074 0001368  87.7596 272.3552 15.08835647 54446,6917.894,95.438,540.705,538.812,0.0
53828.0,STARLINK-4760,PAYLOAD,2023-09-05 23:50:00,15.08846622,0.0001325,53.2162,94.7475,81.0129,279.1013,0.00010454,1.377e-05,0.0,0 STARLINK-4760,1 53828U 22114L   23248.99305862  .00001377  00000-0  10454-3 0  9992,2 53828  53.2162  94.7475 0001325  81.0129 279.1013 15.08846622 54054,6917.86,95.437,540.642,538.809,0.0
53828.0,STARLINK-4760,PAYLOAD,2023-09-06 20:30:01,15.08838969,0.0001372,53.2168,90.8809,80.9617,279.1531,0.00010636,1.405e-05,0.0,0 STARLINK-4760,1 53828U 22114L   23249.85418412  .00001405  00000-0  10636-3 0  9998,2 53828  53.2168  90.8809 0001372  80.9617 279.1531 15.08838969 54724,6917.884,95.438,540.698,538.799,0.0
53828.0,STARLINK-4760,PAYLOAD,2023-09-06 23:40:47,15.08841909,0.0001306,53.2166,90.2856,77.9365,282.1774,8.6814e-05,1.094e-05,0.0,0 STARLINK-4760,1 53828U 22114L   23249.98666263  .00001094  00000-0  86814-4 0  9997,2 53828  53.2166  90.2856 0001306  77.9365 282.1774 15.08841909 54205,6917.875,95.437,540.643,538.836,0.0
53828.0,STARLINK-4760,PAYLOAD,2023-09-07 06:02:20,15.08839209,0.0001321,53.2169,89.0958,79.423,280.6911,5.4049e-05,5.72e-06,0.0,0 STARLINK-4760,1 53828U 22114L   23250.25162520  .00000572  00000-0  54049-4 0  9991,2 53828  53.2169  89.0958 0001321  79.4230 280.6911 15.08839209 54781,6917.883,95.438,540.662,538.834,0.0
53828.0,STARLINK-4760,PAYLOAD,2023-09-07 20:20:48,15.08840856,0.0001396,53.2161,86.4194,81.0015,279.1135,-1.2514e-05,-4.87e-06,0.0,0 STARLINK-4760,1 53828U 22114L   23250.84778588 -.00000487  00000-0 -12514-4 0  9991,2 53828  53.2161  86.4194 0001396  81.0015 279.1135 15.08840856 54879,6917.878,95.438,540.709,538.777,0.0
53828.0,STARLINK-4760,PAYLOAD,2023-09-07 23:31:34,15.08840509,0.0001397,53.2166,85.825,80.8917,279.2233,-1.7845e-05,-5.72e-06,0.0,0 STARLINK-4760,1 53828U 22114L   23250.98026616 -.00000572  00000-0 -17845-4 0  9991,2 53828  53.2166  85.8250 0001397  80.8917 279.2233 15.08840509 54357,6917.879,95.438,540.71,538.777,0.0
53828.0,STARLINK-4760,PAYLOAD,2023-09-08 18:36:13,15.08832791,0.0001408,53.2182,82.2563,78.2724,281.8426,1.6238e-05,-3e-07,0.0,0 STARLINK-4760,1 53828U 22114L   23251.77515178 -.00000030  00000-0  16238-4 0  9998,2 53828  53.2182  82.2563 0001408  78.2724 281.8426 15.08832791 54473,6917.902,95.438,540.741,538.793,0.0
53828.0,STARLINK-4760,PAYLOAD,2023-09-08 21:46:59,15.08836523,0.0001371,53.2181,81.6615,76.9246,283.1899,4.1534e-05,3.73e-06,0.0,0 STARLINK-4760,1 53828U 22114L   23251.90762928  .00000373  00000-0  41534-4 0  9996,2 53828  53.2181  81.6615 0001371  76.9246 283.1899 15.08836523 55035,6917.891,95.438,540.704,538.808,0.0
53828.0,STARLINK-4760,PAYLOAD,2023-09-09 05:43:54,15.08834729,0.0001361,53.2173,80.1748,84.3758,275.739,3.9552e-05,3.42e-06,0.0,0 STARLINK-4760,1 53828U 22114L   23252.23883094  .00000342  00000-0  39552-4 0  9994,2 53828  53.2173  80.1748 0001361  84.3758 275.7390 15.08834729 55081,6917.897,95.438,540.703,538.82,0.0
53828.0,STARLINK-4760,PAYLOAD,2023-09-09 18:26:59,15.08843304,0.0001346,53.218,77.7959,67.7707,292.3428,0.00014474,2.017e-05,0.0,0 STARLINK-4760,1 53828U 22114L   23252.76874476  .00002017  00000-0  14474-3 0  9992,2 53828  53.2180  77.7959 0001346  67.7707 292.3428 15.08843304 54622,6917.87,95.437,540.666,538.804,0.0
53828.0,STARLINK-4760,PAYLOAD,2023-09-10 05:34:41,15.08839417,0.000136,53.2178,75.715,86.9894,273.1253,0.00010191,1.334e-05,0.0,0 STARLINK-4760,1 53828U 22114L   23253.23242836  .00001334  00000-0  10191-3 0  9997,2 53828  53.2178  75.7150 0001360  86.9894 273.1253 15.08839417 54696,6917.882,95.438,540.688,538.806,0.0
53828.0,STARLINK-4760,PAYLOAD,2023-09-10 11:56:14,15.08838583,0.0001309,53.2178,74.5271,78.941,281.1729,0.00010671,1.411e-05,0.0,0 STARLINK-4760,1 53828U 22114L   23253.49738942  .00001411  00000-0  10671-3 0  9992,2 53828  53.2178  74.5271 0001309  78.9410 281.1729 15.08838583 55270,6917.885,95.438,540.655,538.844,0.0
53828.0,STARLINK-4760,PAYLOAD,2023-09-11 11:47:01,15.08837494,0.0001232,53.2168,70.0636,90.4736,269.6397,2.5697e-05,1.21e-06,0.0,0 STARLINK-4760,1 53828U 22114L   23254.49099240  .00000121  00000-0  25697-4 0  9996,2 53828  53.2168  70.0636 0001232  90.4736 269.6397 15.08837494 55429,6917.888,95.438,540.605,538.901,0.0
53828.0,STARLINK-4760,PAYLOAD,2023-09-11 18:08:34,15.08843605,0.0001404,53.2177,68.8767,80.8517,279.2634,2.8073e-05,1.59e-06,0.0,0 STARLINK-4760,1 53828U 22114L   23254.75594952  .00000159  00000-0  28073-4 0  9997,2 53828  53.2177  68.8767 0001404  80.8517 279.2634 15.08843605 54926,6917.869,95.437,540.706,538.763,0.0
53828.0,STARLINK-4760,PAYLOAD,2023-09-12 11:37:48,15.08841853,0.0001416,53.2162,65.6045,82.6632,277.4521,4.4151e-05,4.15e-06,0.0,0 STARLINK-4760,1 53828U 22114L   23255.48458906  .00000415  00000-0  44151-4 0  9996,2 53828  53.2162  65.6045 0001416  82.6632 277.4521 15.08841853 55575,6917.875,95.437,540.719,538.76,0.0
53828.0,STARLINK-4760,PAYLOAD,2023-09-12 17:59:20,15.08847653,0.000125,53.2173,64.4143,84.7105,275.403,4.1255e-05,3.69e-06,0.0,0 STARLINK-4760,1 53828U 22114L   23255.74954468  .00000369  00000-0  41255-4 0  9999,2 53828  53.2173  64.4143 0001250  84.7105 275.4030 15.08847653 55619,6917.857,95.437,540.587,538.857,0.0
53828.0,STARLINK-4760,PAYLOAD,2023-09-13 11:28:35,15.08843615,0.000129,53.2172,61.1439,85.6889,274.4251,8.2251e-05,1.021e-05,0.0,0 STARLINK-4760,1 53828U 22114L   23256.47818485  .00001021  00000-0  82251-4 0  9995,2 53828  53.2172  61.1439 0001290  85.6889 274.4251 15.08843615 55723,6917.869,95.437,540.627,538.842,0.0
53828.0,STARLINK-4760,PAYLOAD,2023-09-13 17:50:07,15.08841408,0.0001074,53.2178,59.9532,87.3477,272.7638,0.00014052,1.949e-05,0.0,0 STARLINK-4760,1 53828U 22114L   23256.74314420  .00001949  00000-0  14052-3 0  9997,2 53828  53.2178  59.9532 0001074  87.3477 272.7638 15.08841408 55223,6917.876,95.437,540.484,538.998,0.0
53828.0,STARLINK-4760,PAYLOAD,2023-09-13 21:00:53,15.08849081,0.0001088,53.2178,59.3582,90.1002,270.0115,5.7145e-05,6.22e-06,0.0,0 STARLINK-4760,1 53828U 22114L   23256.87562034  .00000622  00000-0  57145-4 0  9995,2 53828  53.2178  59.3582 0001088  90.1002 270.0115 15.08849081 55780,6917.853,95.437,540.47,538.965,0.0
53828.0,STARLINK-4760,PAYLOAD,2023-09-14 09:44:00,15.08829106,0.0001707,53.2176,56.9805,89.657,270.4618,-1.6686e-05,-5.54e-06,0.0,0 STARLINK-4760,1 53828U 22114L   23257.40555877 -.00000554  00000-0 -16686-4 0  9993,2 53828  53.2176  56.9805 0001707  89.6570 270.4618 15.08829106 55328,6917.914,95.438,540.96,538.598,0.0
53828.0,STARLINK-4760,PAYLOAD,2023-09-14 11:19:23,15.08825213,0.0001235,53.2175,56.6832,98.1175,261.9958,-4.8926e-05,-1.066e-05,0.0,0 STARLINK-4760,1 53828U 22114L   23257.47180169 -.00001066  00000-0 -48926-4 0  9999,2 53828  53.2175  56.6832 0001235  98.1175 261.9958 15.08825213 55873,6917.926,95.438,540.645,538.936,0.0
